CCSDS_OMM_VERS = 2.0
CREATION_DATE  = 
ORIGINATOR     = 

OBJECT_NAME    = STARLINK-36638
OBJECT_ID      = 2026-018F
CENTER_NAME    = EARTH
REF_FRAME      = TEME
TIME_SYSTEM    = UTC
MEAN_ELEMENT_THEORY = SGP/SGP4

EPOCH          = 2026-02-20T16:33:29.774016
MEAN_MOTION    = 15.80965688
ECCENTRICITY   = .00019607
INCLINATION    = 97.2828
RA_OF_ASC_NODE = 116.6887
ARG_OF_PERICENTER = 55.4188
MEAN_ANOMALY   = 304.7265

EPHEMERIS_TYPE = 0
CLASSIFICATION_TYPE = U
NORAD_CAT_ID   = 67594
ELEMENT_SET_NO = 999
REV_AT_EPOCH   = 463
BSTAR          = .17300116E-2
MEAN_MOTION_DOT = .347132E-2
MEAN_MOTION_DDOT = 0

CCSDS_OMM_VERS = 2.0
CREATION_DATE  = 
ORIGINATOR     = 

OBJECT_NAME    = STARLINK-36628
OBJECT_ID      = 2026-018G
CENTER_NAME    = EARTH
REF_FRAME      = TEME
TIME_SYSTEM    = UTC
MEAN_ELEMENT_THEORY = SGP/SGP4

EPOCH          = 2026-02-20T17:02:12.420672
MEAN_MOTION    = 15.75197090
ECCENTRICITY   = .00014734
INCLINATION    = 97.2834
RA_OF_ASC_NODE = 116.6608
ARG_OF_PERICENTER = 101.3953
MEAN_ANOMALY   = 258.7478

EPHEMERIS_TYPE = 0
CLASSIFICATION_TYPE = U
NORAD_CAT_ID   = 67595
ELEMENT_SET_NO = 999
REV_AT_EPOCH   = 463
BSTAR          = .13693332E-2
MEAN_MOTION_DOT = .209263E-2
MEAN_MOTION_DDOT = 0

CCSDS_OMM_VERS = 2.0
CREATION_DATE  = 
ORIGINATOR     = 

OBJECT_NAME    = STARLINK-36629
OBJECT_ID      = 2026-018H
CENTER_NAME    = EARTH
REF_FRAME      = TEME
TIME_SYSTEM    = UTC
MEAN_ELEMENT_THEORY = SGP/SGP4

EPOCH          = 2026-02-20T17:13:23.551680
MEAN_MOTION    = 15.75199556
ECCENTRICITY   = .00021503
INCLINATION    = 97.2833
RA_OF_ASC_NODE = 116.6493
ARG_OF_PERICENTER = 73.7920
MEAN_ANOMALY   = 286.3582

EPHEMERIS_TYPE = 0
CLASSIFICATION_TYPE = U
NORAD_CAT_ID   = 67596
ELEMENT_SET_NO = 999
REV_AT_EPOCH   = 463
BSTAR          = .14135672E-2
MEAN_MOTION_DOT = .216234E-2
MEAN_MOTION_DDOT = 0

CCSDS_OMM_VERS = 2.0
CREATION_DATE  = 
ORIGINATOR     = 

OBJECT_NAME    = STARLINK-36384
OBJECT_ID      = 2026-018J
CENTER_NAME    = EARTH
REF_FRAME      = TEME
TIME_SYSTEM    = UTC
MEAN_ELEMENT_THEORY = SGP/SGP4

EPOCH          = 2026-02-20T16:29:15.665568
MEAN_MOTION    = 15.80980115
ECCENTRICITY   = .00041255
INCLINATION    = 97.2833
RA_OF_ASC_NODE = 116.6921
ARG_OF_PERICENTER = 43.4036
MEAN_ANOMALY   = 316.7556

EPHEMERIS_TYPE = 0
CLASSIFICATION_TYPE = U
NORAD_CAT_ID   = 67597
ELEMENT_SET_NO = 999
REV_AT_EPOCH   = 463
BSTAR          = .2120749E-2
MEAN_MOTION_DOT = .430018E-2
MEAN_MOTION_DDOT = 0

CCSDS_OMM_VERS = 2.0
CREATION_DATE  = 
ORIGINATOR     = 

OBJECT_NAME    = STARLINK-36358
OBJECT_ID      = 2026-018K
CENTER_NAME    = EARTH
REF_FRAME      = TEME
TIME_SYSTEM    = UTC
MEAN_ELEMENT_THEORY = SGP/SGP4

EPOCH          = 2026-02-20T17:04:45.264000
MEAN_MOTION    = 15.75201508
ECCENTRICITY   = .00024387
INCLINATION    = 97.2836
RA_OF_ASC_NODE = 116.6578
ARG_OF_PERICENTER = 72.7369
MEAN_ANOMALY   = 287.4163

EPHEMERIS_TYPE = 0
CLASSIFICATION_TYPE = U
NORAD_CAT_ID   = 67598
ELEMENT_SET_NO = 999
REV_AT_EPOCH   = 463
BSTAR          = .13573253E-2
MEAN_MOTION_DOT = .207432E-2
MEAN_MOTION_DDOT = 0

CCSDS_OMM_VERS = 2.0
CREATION_DATE  = 
ORIGINATOR     = 

OBJECT_NAME    = STARLINK-36582
OBJECT_ID      = 2026-018L
CENTER_NAME    = EARTH
REF_FRAME      = TEME
TIME_SYSTEM    = UTC
MEAN_ELEMENT_THEORY = SGP/SGP4

EPOCH          = 2026-02-20T22:00:01.999584
MEAN_MOTION    = 15.75266701
ECCENTRICITY   = .00013644
INCLINATION    = 97.2840
RA_OF_ASC_NODE = 116.9120
ARG_OF_PERICENTER = 82.3625
MEAN_ANOMALY   = 87.7967

EPHEMERIS_TYPE = 0
CLASSIFICATION_TYPE = U
NORAD_CAT_ID   = 67599
ELEMENT_SET_NO = 999
REV_AT_EPOCH   = 475
BSTAR          = -.11724631E-2
MEAN_MOTION_DOT = -.172109E-2
MEAN_MOTION_DDOT = 0

CCSDS_OMM_VERS = 2.0
CREATION_DATE  = 
ORIGINATOR     = 

OBJECT_NAME    = STARLINK-36640
OBJECT_ID      = 2026-018M
CENTER_NAME    = EARTH
REF_FRAME      = TEME
TIME_SYSTEM    = UTC
MEAN_ELEMENT_THEORY = SGP/SGP4

EPOCH          = 2026-02-20T17:10:20.573760
MEAN_MOTION    = 15.75193076
ECCENTRICITY   = .00021869
INCLINATION    = 97.2841
RA_OF_ASC_NODE = 116.6531
ARG_OF_PERICENTER = 66.1484
MEAN_ANOMALY   = 294.0011

EPHEMERIS_TYPE = 0
CLASSIFICATION_TYPE = U
NORAD_CAT_ID   = 67600
ELEMENT_SET_NO = 999
REV_AT_EPOCH   = 463
BSTAR          = .15037894E-2
MEAN_MOTION_DOT = .230363E-2
MEAN_MOTION_DDOT = 0

CCSDS_OMM_VERS = 2.0
CREATION_DATE  = 
ORIGINATOR     = 

OBJECT_NAME    = STARLINK-36635
OBJECT_ID      = 2026-018N
CENTER_NAME    = EARTH
REF_FRAME      = TEME
TIME_SYSTEM    = UTC
MEAN_ELEMENT_THEORY = SGP/SGP4

EPOCH          = 2026-02-20T22:00:01.999584
MEAN_MOTION    = 15.77467139
ECCENTRICITY   = .00017898
INCLINATION    = 97.2841
RA_OF_ASC_NODE = 116.9417
ARG_OF_PERICENTER = 82.9302
MEAN_ANOMALY   = 155.0259

EPHEMERIS_TYPE = 0
CLASSIFICATION_TYPE = U
NORAD_CAT_ID   = 67601
ELEMENT_SET_NO = 999
REV_AT_EPOCH   = 465
BSTAR          = -.13185509E-1
MEAN_MOTION_DOT = -.1896316E-1
MEAN_MOTION_DDOT = 0

CCSDS_OMM_VERS = 2.0
CREATION_DATE  = 
ORIGINATOR     = 

OBJECT_NAME    = STARLINK-36631
OBJECT_ID      = 2026-018P
CENTER_NAME    = EARTH
REF_FRAME      = TEME
TIME_SYSTEM    = UTC
MEAN_ELEMENT_THEORY = SGP/SGP4

EPOCH          = 2026-02-20T19:24:02.130336
MEAN_MOTION    = 15.80902946
ECCENTRICITY   = .00016733
INCLINATION    = 97.2839
RA_OF_ASC_NODE = 116.8333
ARG_OF_PERICENTER = 103.3319
MEAN_ANOMALY   = 256.8136

EPHEMERIS_TYPE = 0
CLASSIFICATION_TYPE = U
NORAD_CAT_ID   = 67602
ELEMENT_SET_NO = 999
REV_AT_EPOCH   = 465
BSTAR          = .20484714E-2
MEAN_MOTION_DOT = .413035E-2
MEAN_MOTION_DDOT = 0

CCSDS_OMM_VERS = 2.0
CREATION_DATE  = 
ORIGINATOR     = 

OBJECT_NAME    = STARLINK-36626
OBJECT_ID      = 2026-018Q
CENTER_NAME    = EARTH
REF_FRAME      = TEME
TIME_SYSTEM    = UTC
MEAN_ELEMENT_THEORY = SGP/SGP4

EPOCH          = 2026-02-20T22:00:01.999584
MEAN_MOTION    = 15.75276420
ECCENTRICITY   = .00016256
INCLINATION    = 97.2844
RA_OF_ASC_NODE = 116.9282
ARG_OF_PERICENTER = 110.2138
MEAN_ANOMALY   = 93.9619

EPHEMERIS_TYPE = 0
CLASSIFICATION_TYPE = U
NORAD_CAT_ID   = 67603
ELEMENT_SET_NO = 999
REV_AT_EPOCH   = 464
BSTAR          = -.10986E-2
MEAN_MOTION_DOT = -.161547E-2
MEAN_MOTION_DDOT = 0

CCSDS_OMM_VERS = 2.0
CREATION_DATE  = 
ORIGINATOR     = 

OBJECT_NAME    = STARLINK-36605
OBJECT_ID      = 2026-018R
CENTER_NAME    = EARTH
REF_FRAME      = TEME
TIME_SYSTEM    = UTC
MEAN_ELEMENT_THEORY = SGP/SGP4

EPOCH          = 2026-02-20T16:59:09.396960
MEAN_MOTION    = 15.75195202
ECCENTRICITY   = .00015078
INCLINATION    = 97.2832
RA_OF_ASC_NODE = 116.6633
ARG_OF_PERICENTER = 113.1900
MEAN_ANOMALY   = 246.9524

EPHEMERIS_TYPE = 0
CLASSIFICATION_TYPE = U
NORAD_CAT_ID   = 67604
ELEMENT_SET_NO = 999
REV_AT_EPOCH   = 463
BSTAR          = .19427384E-2
MEAN_MOTION_DOT = .300131E-2
MEAN_MOTION_DDOT = 0

CCSDS_OMM_VERS = 2.0
CREATION_DATE  = 
ORIGINATOR     = 

OBJECT_NAME    = STARLINK-36281
OBJECT_ID      = 2026-018S
CENTER_NAME    = EARTH
REF_FRAME      = TEME
TIME_SYSTEM    = UTC
MEAN_ELEMENT_THEORY = SGP/SGP4

EPOCH          = 2026-02-20T17:51:05.433696
MEAN_MOTION    = 15.80857760
ECCENTRICITY   = .00019574
INCLINATION    = 97.2844
RA_OF_ASC_NODE = 116.7670
ARG_OF_PERICENTER = 73.6894
MEAN_ANOMALY   = 286.4589

EPHEMERIS_TYPE = 0
CLASSIFICATION_TYPE = U
NORAD_CAT_ID   = 67605
ELEMENT_SET_NO = 999
REV_AT_EPOCH   = 464
BSTAR          = .18784015E-2
MEAN_MOTION_DOT = .376343E-2
MEAN_MOTION_DDOT = 0

