STARLINK-36638          
1 67594U 26018F   26051.68992794  .00347132  00000+0  17300-2 0  9998
2 67594  97.2828 116.6887 0001960  55.4188 304.7265 15.80965688  4639
STARLINK-36628          
1 67595U 26018G   26051.70986598  .00209263  00000+0  13693-2 0  9990
2 67595  97.2834 116.6608 0001473 101.3953 258.7478 15.75197090  4630
STARLINK-36629          
1 67596U 26018H   26051.71763370  .00216234  00000+0  14136-2 0  9992
2 67596  97.2833 116.6493 0002150  73.7920 286.3582 15.75199556  4633
STARLINK-36384          
1 67597U 26018J   26051.68698687  .00430018  00000+0  21207-2 0  9992
2 67597  97.2833 116.6921 0004125  43.4036 316.7556 15.80980115  4630
STARLINK-36358          
1 67598U 26018K   26051.71163500  .00207432  00000+0  13573-2 0  9997
2 67598  97.2836 116.6578 0002438  72.7369 287.4163 15.75201508  4635
STARLINK-36582          
1 67599U 26018L   26051.91668981 -.00172109  00000+0 -11725-2 0  9994
2 67599  97.2840 116.9120 0001364  82.3625  87.7967 15.75266701  4758
STARLINK-36640          
1 67600U 26018M   26051.71551590  .00230363  00000+0  15038-2 0  9998
2 67600  97.2841 116.6531 0002186  66.1484 294.0011 15.75193076  4635
STARLINK-36635          
1 67601U 26018N   26051.91668981 -.01896316  00000+0 -13186-1 0  9994
2 67601  97.2841 116.9417 0001789  82.9302 155.0259 15.77467139  4653
STARLINK-36631          
1 67602U 26018P   26051.80835799  .00413035  00000+0  20485-2 0  9997
2 67602  97.2839 116.8333 0001673 103.3319 256.8136 15.80902946  4653
STARLINK-36626          
1 67603U 26018Q   26051.91668981 -.00161547  00000+0 -10986-2 0  9992
2 67603  97.2844 116.9282 0001625 110.2138  93.9619 15.75276420  4647
STARLINK-36605          
1 67604U 26018R   26051.70774765  .00300131  00000+0  19427-2 0  9999
2 67604  97.2832 116.6633 0001507 113.1900 246.9524 15.75195202  4632
STARLINK-36281          
1 67605U 26018S   26051.74381289  .00376343  00000+0  18784-2 0  9992
2 67605  97.2844 116.7670 0001957  73.6894 286.4589 15.80857760  4640
